#dP2021  2  6  0  0  0.00000000      97 __u+U IGS14 FIT  IAC
## 2143 518400.00000000   900.00000000 59251 0.0000000000000
+  122   C01C02C03C04C05C07C08C09C10C11C12C13C14C16C19C20C21
+        C22C23C24C25C26C27C28C29C30C32C33C34C35C36C37C38C39
+        C40C41C42C43C44C45C46C60E01E02E03E04E05E07E08E09E11
+        E12E13E14E15E18E19E21E24E25E26E27E30E31E33E36G01G02
+        G03G04G05G06G07G08G09G10G11G12G13G14G15G16G17G18G19
+        G20G21G22G23G24G25G26G27G28G29G30G31G32J01J02J03J07
+        R01R02R03R04R05R07R08R11R12R13R14R15R16R17R18R19R20
+        R21R22R24  0  0  0  0  0  0  0  0  0  0  0  0  0  0
++        13 13 13 13 13  9  9  9  9  8  8  8 11  9  7  7  7
++         7  7  7  7  7  7  7  8  7  7  7  8  8  8  8  8  8
++         8  8  8  8  8  8  8  0  5  4  4  4  5  4  4  4  4
++         4  4  4  4  4  4  4  4  4  4  4  4  4  4  4  3  4
++         3  3  4  3  3  5  3  3  4  3  3  3  3  4  3  3  3
++         3  3  3  3  3  3  4  4  3  3  3  4  3  8  8  8 15
++         6  5  7  5  5  5  5  7  5  6  5  5  6  5  5  6  6
++         6  6  5  0  0  0  0  0  0  0  0  0  0  0  0  0  0
%c M  cc GPS ccc cccc cccc cccc cccc ccccc ccccc ccccc ccccc
%c cc cc ccc ccc cccc cccc cccc cccc ccccc ccccc ccccc ccccc
%f  1.2500000  1.025000000  0.00000000000  0.000000000000000
%f  0.0000000  0.000000000  0.00000000000  0.000000000000000
%i    0    0    0    0      0      0      0      0         0
%i    0    0    0    0      0      0      0      0         0
/* INFORMATION & ANALYSIS CENTER (IAC)            FINAL DATA
/* S/V CLOCKS ARE ALIGNED TO GNSS TIME                      
/* G:C1WC2W R:C1PC2P E:C1XC5X C:C2IC6I J:C1CC2S             
/* PCV:IGS14_2134 OL/AL:FES2004  NONE     YN ORB:CoN CLK:CoN
*  2021 02 06  6 15  0.00000000
PC01 -34380.743045  24453.179348    294.895418   -738.212879
PC02   4495.611641  41882.030483   -931.319880    535.500622
PC03 -14705.943157  39489.519676  -1468.334458   -475.950192
PC04 -39664.096320  14345.992812   -267.200185   -328.411054
PC05  21927.648058  35989.673231   -882.793064   -700.071035
PC07  -7819.369549  32829.299371  25812.320079   -298.912330
PC08 -17402.461572  17551.363957 -34126.067392   -919.170042
PC09 -10034.900203  34248.373063  22373.264622    752.767481
PC10   3165.990048  38808.992550  16907.774980    -91.231627
PC11  20217.804864 -19084.393993   2215.143159   -936.925493
PC12  22660.257487  -6883.411708 -14706.408339    778.843854
PC13   -160.155590  22820.845769 -35321.957771    129.576609
PC14   9889.781992 -17726.592899  19151.241110     70.886049
PC16 -20260.080602  35437.371299  10222.271649   -685.364604
PC19  -3581.232403  24709.841756 -12451.648245    717.721483
PC20 -13758.665667   9551.359602 -22309.725880   -913.039915
PC21  16171.386402  12104.798322  19277.208321   -825.272190
PC22   8904.937405  26002.352076   4905.389073   -869.594192
PC23 -13624.240768 -17470.154800 -16975.992384   -876.915977
PC24  23493.382178  -3111.384468 -14722.151852   -754.821525
PC25   5995.178710 -15087.889338 -22703.679882   -923.525709
PC26  26420.393247   8881.424726    808.677445    952.479476
PC27 -18932.908511  -2256.027051  20355.253038    478.687389
PC28  -3445.572454 -16973.630923  21886.066249   -112.877852
PC29 -13170.318948  22216.570221 -10566.104732    348.609629
PC30 -22828.455253  14242.111191   7353.312576    441.110085
PC32 -16254.463235 -11992.753154 -19237.813081   -890.783023
PC33   3555.395606 -24667.509640  12547.214541   -952.456797
PC34  22789.163761 -14667.165011  -6717.928204   -746.370919
PC35   3817.751212  17044.043666 -21755.779246   -431.090332
PC36  -6739.320288  14799.750449  22697.113195   -761.228967
PC37 -26016.867365 -10001.201385  -1605.827875   -863.066367
PC38 -14980.076638  20829.979784 -33451.732174    128.357131
PC39 -17314.768778  36815.140059  10815.847321     28.179615
PC40  -1405.462089  36599.496205  21033.980565    128.726918
PC41  -8799.094519 -26080.845581  -4584.965161   -930.839849
PC42  14100.771005  -8791.204624  22459.759795   -848.319089
PC43  13631.096497 -22160.705535  10125.820802   -585.281050
PC44  18996.089462   1867.201556 -20372.243042     24.403596
PC45  13724.501375  17337.281713  17005.938755    354.785606
PC46 -23028.334526   3660.696056  15363.330097    418.226547
PC60      0.000000      0.000000      0.000000 999999.999999
PE01  18511.109670  22702.002804   4205.962414  -1040.261808
PE02 -18591.400975 -22683.099299  -4102.467840    196.390430
PE03  -7919.889810 -21527.522927 -18707.746751   -395.524275
PE04  17139.969392   1848.111855  24062.947604   -704.043498
PE05   6096.696755 -28876.046236  -2283.725066   -306.851719
PE07 -16413.608693  19304.406210 -15304.912739   -497.242975
PE08 -17085.041330  -1364.776032 -24136.215085   6051.120604
PE09  16174.620310 -19527.105892  15262.004301   5774.672214
PE11  25345.392832 -12751.715239   8470.341035   6361.537402
PE12  27523.974863   -174.430815 -10906.335197   5370.022127
PE13 -25520.600254  12609.986845  -8091.512655    411.585797
PE14  11568.561166 -22651.781646   2017.216292  -1320.268528
PE15 -27510.793603    309.022967  10926.142493    830.682445
PE18  -2342.883994  27528.045975 -15168.910928  -1443.175193
PE19   6303.084627  23165.366799  17312.070102    196.830072
PE21   3027.058407  21841.143529  19738.869507   -646.916071
PE24  15288.120540  -7722.942359 -24151.247208   -728.782636
PE25  -2875.094019 -21782.956975 -19838.293982   -525.855638
PE26  -7795.218320  17557.084653 -22509.026426   2180.410867
PE27 -14772.738114   8294.323154  24274.701149     35.733802
PE30 -23818.416856 -10812.911724  13865.648362   3203.670873
PE31  23760.988963  10025.122657 -14514.363719   -478.031273
PE33  13329.475463  12136.767164 -23466.520691   -465.462904
PE36   8525.555080 -17480.833553  22327.688690    444.377575
PG01   9851.929523  13575.088798 -20919.290752    766.742382
PG02  14650.762622 -14189.678183  17684.201934   -573.927301
PG03  12812.840596  23200.303504  -2532.325334    -75.590315
PG04   2465.148781  20138.064086  17116.176282   -178.241833
PG05   1624.151123 -19571.006907  17648.515034    -32.947569
PG06  24860.041680  -6037.779928   7305.263244     -3.548887
PG07  23005.803786   7537.116677  11802.341680     48.740229
PG08  -2722.843046  23560.713075 -11635.027051     -9.279856
PG09  12096.556489   9861.791086  21424.818423   -320.216990
PG10 -17945.535917  -3353.667786 -19278.036981    -55.423095
PG11    859.756926  17673.279965 -20346.318313    -32.460602
PG12  -8386.419102 -24510.253966  -6462.115086      2.771998
PG13  12727.348068 -22945.859000  -3802.998797     94.048650
PG14  18201.404809   5381.670423 -18592.732200     94.569003
PG15   -581.027805 -23685.164500 -11988.103275   -171.318012
PG16  -4801.389324  17961.669774  18543.302233   -275.948700
PG17  18110.656056  -7930.596259 -17299.038840    389.567925
PG18 -24368.984119  -5624.827391   9024.240644    345.871757
PG19  19025.174965 -14103.929034 -12212.787894    -42.192434
PG20 -21046.580978 -12927.143410 -10174.695147    524.825442
PG21   1168.766675  14936.684709 -21192.450510     93.198560
PG22   8000.168387  22966.992776 -10672.759176   -684.686606
PG23 -19413.322447 -13335.686660 -12338.019676    118.069523
PG24  -4879.840849 -15334.339670 -21398.891984      2.725371
PG25 -17467.597300 -19132.501419   6231.971609     74.824994
PG26 -12450.158995   9353.206016  21463.546692     40.813794
PG27 -12245.871249  23337.717457    301.179137    -70.802310
PG28  16662.056213   2849.560076 -19874.140793    619.515979
PG29 -10464.232528 -10737.393604  21880.350659   -289.744490
PG30  26679.589412   -156.618743    489.796682   -380.455793
PG31 -23989.868940   7187.186342   9443.378219    -98.387901
PG32 -18069.963398   9357.708730 -16884.431565     17.686069
PJ01 -20250.738731  29183.278586 -18149.454152   -339.449525
PJ02 -26792.796563  20374.649856  30281.694576      1.523528
PJ03 -34280.547017  24655.923434   3845.791248     -0.502403
PJ07 -25368.408443  33668.549639      5.014651 999999.999999
PR01   1385.231779  25463.287777    847.783877     74.574035
PR02   9265.848451  13933.261343  19267.317725    465.899650
PR03  10678.370558  -5068.435954  22650.142511     30.389269
PR04   5900.571909 -20950.420420  13333.234931     72.966315
PR05  -1990.842423 -25203.251624  -3481.812248     66.035781
PR07 -10582.283291   5664.451554 -22466.874586    -42.351473
PR08  -5904.814757  20984.021430 -13176.593855    -57.239948
PR11  -7331.408694   8361.447641  22963.045013      3.664820
PR12  10416.738468  15258.525493  17595.285967    202.718203
PR13  21895.493991  12891.905990   2190.395095    -50.353413
PR14  20425.393686   2939.843515 -14992.438654     60.690691
PR15   7147.980745  -8560.992406 -22925.364670    105.551030
PR16 -11615.391496 -15286.493812 -16896.799923    -10.986806
PR17  22353.736378  -8865.025164  -8442.703206    397.658169
PR18  18519.874656 -15380.358719   8538.731433     65.696380
PR19   5831.545589 -13775.952980  20667.021307   -130.909507
PR20 -13253.781318  -3568.307055  21502.570417   -432.757547
PR21 -22520.852427   9474.938721   7374.884029   -185.669657
PR22 -17852.592128  15391.193934  -9631.126779    -96.400003
PR24  14119.149745   3247.761726 -20968.656072     30.500524
EOF
